[c2012f3%28panstarrs%29]
absolute_magnitude=6.5
albedo=0.1
color=1.0, 1.0, 1.0
coord_func=comet_orbit
dust_brightnessfactor=1.5
dust_lengthfactor=0.40000000000000002
dust_widthfactor=1.5
lighting=false
name=C/2012 F3 (PANSTARRS)
orbit_ArgOfPericenter=104.0252
orbit_AscendingNode=164.61160000000001
orbit_Eccentricity=1.0025949999999999
orbit_Inclination=11.354900000000001
orbit_PericenterDistance=3.4568140000000001
orbit_TimeAtPericenter=2457119.2600925928
orbit_good=1000
parent=Sun
radius=5
slope_parameter=4
tex_map=nomap.png
type=comet

[c2012k1%28panstarrs%29]
absolute_magnitude=5.6
albedo=0.1
color=1.0, 1.0, 1.0
coord_func=comet_orbit
dust_brightnessfactor=1.5
dust_lengthfactor=0.40000000000000002
dust_widthfactor=1.5
lighting=false
name=C/2012 K1 (PANSTARRS)
orbit_ArgOfPericenter=203.1301
orbit_AscendingNode=317.75069999999999
orbit_Eccentricity=1.000456
orbit_Inclination=142.41200000000001
orbit_PericenterDistance=1.054521
orbit_TimeAtPericenter=2456897.2902893517
orbit_good=1000
parent=Sun
radius=5
slope_parameter=3.2
tex_map=nomap.png
type=comet

[c2012x1%28linear%29]
absolute_magnitude=4.8
albedo=0.1
color=1.0, 1.0, 1.0
coord_func=comet_orbit
dust_brightnessfactor=1.5
dust_lengthfactor=0.40000000000000002
dust_widthfactor=1.5
lighting=false
name=C/2012 X1 (LINEAR)
orbit_ArgOfPericenter=132.1063
orbit_AscendingNode=113.0951
orbit_Eccentricity=0.98996600000000001
orbit_Inclination=44.357599999999998
orbit_PericenterDistance=1.596959
orbit_TimeAtPericenter=2456710.3222916666
orbit_visualization_period=726841.5049832416
orbit_good=368
parent=Sun
radius=5
slope_parameter=3.6
tex_map=nomap.png
type=comet

[c2013a1%28sidingspring%29]
absolute_magnitude=8.2
albedo=0.1
color=1.0, 1.0, 1.0
coord_func=comet_orbit
dust_brightnessfactor=1.5
dust_lengthfactor=0.40000000000000002
dust_widthfactor=1.5
lighting=false
name=C/2013 A1 (Siding Spring)
orbit_ArgOfPericenter=2.4537
orbit_AscendingNode=301.012
orbit_Eccentricity=0.99988500000000002
orbit_Inclination=129.02549999999999
orbit_PericenterDistance=1.400134
orbit_TimeAtPericenter=2456955.5307986112
orbit_good=302
parent=Sun
radius=5
slope_parameter=2.4
tex_map=nomap.png
type=comet

[c2013us10%28catalina%29]
absolute_magnitude=4.4
albedo=0.1
color=1.0, 1.0, 1.0
coord_func=comet_orbit
dust_brightnessfactor=1.5
dust_lengthfactor=0.40000000000000002
dust_widthfactor=1.5
lighting=false
name=C/2013 US10 (Catalina)
orbit_ArgOfPericenter=340.36500000000001
orbit_AscendingNode=186.14660000000001
orbit_Eccentricity=1.000272
orbit_Inclination=148.87860000000001
orbit_PericenterDistance=0.82313800000000004
orbit_TimeAtPericenter=2457342.2109953705
orbit_good=1000
parent=Sun
radius=5
slope_parameter=4
tex_map=nomap.png
type=comet

[c2013v5%28oukaimeden%29]
absolute_magnitude=9
albedo=0.1
color=1.0, 1.0, 1.0
coord_func=comet_orbit
dust_brightnessfactor=1.5
dust_lengthfactor=0.40000000000000002
dust_widthfactor=1.5
lighting=false
name=C/2013 V5 (Oukaimeden)
orbit_ArgOfPericenter=314.84859999999998
orbit_AscendingNode=278.8861
orbit_Eccentricity=0.99829400000000001
orbit_Inclination=154.86840000000001
orbit_PericenterDistance=0.62735300000000005
orbit_TimeAtPericenter=2456928.2406944446
orbit_good=90
parent=Sun
radius=5
slope_parameter=4
tex_map=nomap.png
type=comet

[c2014q2%28lovejoy%29]
absolute_magnitude=4
albedo=0.1
color=1.0, 1.0, 1.0
coord_func=comet_orbit
dust_brightnessfactor=1.5
dust_lengthfactor=0.40000000000000002
dust_widthfactor=1.5
lighting=false
name=C/2014 Q2 (Lovejoy)
orbit_ArgOfPericenter=12.404199999999999
orbit_AscendingNode=94.991799999999998
orbit_Eccentricity=0.99766100000000002
orbit_Inclination=80.286799999999999
orbit_PericenterDistance=1.2909200000000001
orbit_TimeAtPericenter=2457052.5158912037
orbit_good=267
parent=Sun
radius=5
slope_parameter=8.4
tex_map=nomap.png
type=comet

[c2014q3%28borisov%29]
absolute_magnitude=-0.5
albedo=0.1
color=1.0, 1.0, 1.0
coord_func=comet_orbit
dust_brightnessfactor=1.5
dust_lengthfactor=0.40000000000000002
dust_widthfactor=1.5
lighting=false
name=C/2014 Q3 (Borisov)
orbit_ArgOfPericenter=47.388100000000001
orbit_AscendingNode=63.137799999999999
orbit_Eccentricity=0.94186000000000003
orbit_Inclination=89.928399999999996
orbit_PericenterDistance=1.6479010000000001
orbit_TimeAtPericenter=2456980.4873958332
orbit_good=386
parent=Sun
radius=5
slope_parameter=20
tex_map=nomap.png
type=comet

[c2014r1%28borisov%29]
absolute_magnitude=6.5
albedo=0.1
color=1.0, 1.0, 1.0
coord_func=comet_orbit
dust_brightnessfactor=1.5
dust_lengthfactor=0.40000000000000002
dust_widthfactor=1.5
lighting=false
name=C/2014 R1 (Borisov)
orbit_ArgOfPericenter=55.688600000000001
orbit_AscendingNode=104.0526
orbit_Eccentricity=0.99263400000000002
orbit_Inclination=9.9289000000000005
orbit_PericenterDistance=1.3466689999999999
orbit_TimeAtPericenter=2456980.7336921296
orbit_good=285
parent=Sun
radius=5
slope_parameter=8.8
tex_map=nomap.png
type=comet

[c2014w2%28panstarrs%29]
absolute_magnitude=7.5
albedo=0.1
color=1.0, 1.0, 1.0
coord_func=comet_orbit
dust_brightnessfactor=1.5
dust_lengthfactor=0.40000000000000002
dust_widthfactor=1.5
lighting=false
name=C/2014 W2 (PANSTARRS)
orbit_ArgOfPericenter=85.017300000000006
orbit_AscendingNode=69.962900000000005
orbit_Eccentricity=0.99825299999999995
orbit_Inclination=81.998699999999999
orbit_PericenterDistance=2.6702940000000002
orbit_TimeAtPericenter=2457458.0034953705
orbit_good=796
parent=Sun
radius=5
slope_parameter=4
tex_map=nomap.png
type=comet

[callisto]
albedo=0.20
atmosphere=1
color=1., 0.979, 0.897
coord_func=calisto_special
halo=true
lighting=true
name=Callisto
orbit_visualization_period=16.689
parent=Jupiter
radius=2403.
rot_equator_ascending_node=160.6
rot_obliquity=0.4
rot_periode=400.5364314
rot_rotation_offset=120.80
tex_halo=star16x16.png
tex_map=callisto.png
type=moon

[carme]
albedo=0.03
color=1., 0.9, 0.75
coord_func=ell_orbit
halo=true
lighting=true
name=Carme
orbit_AscendingNode=157.3089190745055
orbit_Eccentricity=0.2602970868062183
orbit_Epoch=2454619.50000
orbit_Inclination=168.2000198365060
orbit_LongOfPericenter=249.8596440195790000
orbit_MeanLongitude=168.7753954572220000
orbit_Period=691.6548924754876
orbit_SemiMajorAxis=22545456.68297467
orbit_visualization_period=691.6548924754876
parent=Jupiter
radius=15
rot_equator_ascending_node=213.7
rot_obliquity=15.5
rot_periode=691.6548924754876
rot_rotation_offset=14.9
tex_halo=star16x16.png
tex_map=lune.png
type=moon

[charon]
albedo=0.35
color=1., 1., 1.
coord_func=ell_orbit
halo=true
lighting=true
name=Charon
orbit_AscendingNode=93.5582
orbit_Eccentricity=0.0002
orbit_Epoch=2451545.0
orbit_Inclination=0.0048
orbit_LongOfPericenter=227.3188
orbit_MeanLongitude=320.7583
orbit_Period=-6.387246
orbit_SemiMajorAxis=19636
orbit_visualization_period=6.387246
parent=Pluto
radius=593.
rot_equator_ascending_node=287.6
rot_obliquity=1.0
rot_periode=-153.293904
rot_rotation_offset=195.62
tex_halo=star16x16.png
tex_map=charon.png
type=moon

[deimos]
albedo=0.21
color=1., 0.93, 0.832
coord_func=deimos_special
halo=true
lighting=true
name=Deimos
orbit_visualization_period=1.263
parent=Mars
radius=6.2
rot_equator_ascending_node=186.6
rot_obliquity=0.6
rot_periode=30.29857807
rot_rotation_offset=211.4
tex_halo=star16x16.png
tex_map=deimos.png
type=moon

[despina]
albedo=0.06
color=1., 0.9, 0.75
coord_func=ell_orbit
halo=true
lighting=true
name=Despina
orbit_AscendingNode=16.63627320068509
orbit_Eccentricity=0.001272032273930335
orbit_Epoch=2454619.50000
orbit_Inclination=0.5113748544074094
orbit_LongOfPericenter=151.8881808
orbit_MeanLongitude=143.7191234
orbit_Period=0.3354528211477725
orbit_SemiMajorAxis=52588.64584972781
orbit_visualization_period=0.3354528211477725
parent=Neptune
radius=74
rot_equator_ascending_node=213.7
rot_obliquity=15.5
rot_periode=8.05086770754654
rot_rotation_offset=5.67
tex_halo=star16x16.png
tex_map=lune.png
type=moon

[dione]
albedo=0.7
color=1.0, 0.98, 0.966
coord_func=dione_special
halo=true
lighting=true
name=Dione
orbit_visualization_period=2.736915
parent=Saturn
radius=560.
rot_obliquity=0.0
rot_periode=65.68597326
rot_rotation_offset=316.98
tex_halo=star16x16.png
tex_map=dione.png
type=moon

[earth]
albedo=0.3
atmosphere=1
color=0.898, 0.94, 1.
coord_func=earth_special
halo=true
landscape=guereins
lighting=true
name=Earth
oblateness=0.00335364
orbit_visualization_period=365.256363004
parent=Sun
radius=6378.14
rot_epoch=2451545.0
rot_obliquity=-23.4392803055555555556
rot_periode=23.9344694
rot_precession_rate=1.39639 #degrees/j.century (annual rate 50.27 arcseconds)
rot_rotation_offset=280.5
tex_halo=star16x16.png
tex_map=earth-clouds.png
type=planet

[elara]
albedo=0.03
color=1., 0.9, 0.75
coord_func=ell_orbit
halo=true
lighting=true
name=Elara
orbit_Ascendingnode=108.1879658680286
orbit_Eccentricity=0.1961747274882456
orbit_Epoch=2454619.50000
orbit_Inclination=31.98511468770062
orbit_LongOfPericenter=271.5797601368340000
orbit_MeanLongitude=172.2385623581720000
orbit_Period=258.8836449322499
orbit_SemiMajorAxis=11709431.51919092
orbit_visualization_period=258.8836449322499
parent=Jupiter
radius=40
rot_equator_ascending_node=213.7
rot_obliquity=15.5
rot_periode=0.5
rot_rotation_offset=14.9
tex_halo=star16x16.png
tex_map=lune.png
type=moon

[enceladus]
albedo=0.99
color=1., 0.998, 0.991
coord_func=enceladus_special
halo=true
lighting=true
name=Enceladus
orbit_visualization_period=1.370218
parent=Saturn
radius=249.4
rot_obliquity=0.0
rot_periode=32.88523401
rot_rotation_offset=322.9
tex_halo=star16x16.png
tex_map=enceladus.png
type=moon

[europa]
albedo=0.64
atmosphere=1
color=1., 0.968, 0.887
coord_func=europa_special
halo=true
lighting=true
name=Europa
orbit_visualization_period=3.551
parent=Jupiter
radius=1565.
rot_obliquity=0.0
rot_periode=85.22834590
rot_rotation_offset=54.89
tex_halo=star16x16.png
tex_map=europa.png
type=moon

